[{"OBJECT_NAME":"STARLINK-1523","OBJECT_ID":"2020-055B","EPOCH":"2026-03-10T00:00:02.999808","MEAN_MOTION":15.18858191,"ECCENTRICITY":1.299e-5,"INCLINATION":53.1064,"RA_OF_ASC_NODE":124.8251,"ARG_OF_PERICENTER":79.5973,"MEAN_ANOMALY":273.0855,"EPHEMERIS_TYPE":0,"CLASSIFICATION_TYPE":"U","NORAD_CAT_ID":46028,"ELEMENT_SET_NO":999,"REV_AT_EPOCH":574,"BSTAR":0.0058060297,"MEAN_MOTION_DOT":0.00124296,"MEAN_MOTION_DDOT":0},{"OBJECT_NAME":"SEMI-1P","OBJECT_ID":"2025-248F","EPOCH":"2026-03-08T23:35:30.055200","MEAN_MOTION":15.20583753,"ECCENTRICITY":0.00103031,"INCLINATION":45.4089,"RA_OF_ASC_NODE":297.1314,"ARG_OF_PERICENTER":192.9316,"MEAN_ANOMALY":167.1308,"EPHEMERIS_TYPE":0,"CLASSIFICATION_TYPE":"U","NORAD_CAT_ID":66298,"ELEMENT_SET_NO":999,"REV_AT_EPOCH":1928,"BSTAR":0.00024112625,"MEAN_MOTION_DOT":5.101e-5,"MEAN_MOTION_DDOT":0}]
